SL-12 R/B(2)            
1 28466U 04043D   26087.64636713 -.00000220  00000+0  00000+0 0  9999
2 28466  13.1394  17.0537 0006895 165.2924  30.1906  1.00161660 78307
NSS-10                  
1 28526U 05003A   26087.82253885 -.00000266  00000+0  00000+0 0  9998
2 28526   6.2498  71.4127 0003262 291.2220  82.2564  1.00271945 52358
INMARSAT 4-F1           
1 28628U 05009A   26087.76642205  .00000017  00000+0  00000+0 0  9991
2 28628   5.0612  42.7187 0003077 343.5643 253.9005  1.00271974 76868
SL-12 R/B(2)            
1 28634U 05010F   26086.91328588  .00000032  00000+0  00000+0 0  9998
2 28634  13.0395  19.0107 0022834 267.6312 286.1194  1.00219264 76885
DIRECTV 8               
1 28659U 05019A   26087.66378721  .00000000  00000+0  00000+0 0  9996
2 28659   0.0247 177.3555 0003253 200.0734 288.5675  1.00270492 76264
GALAXY 28 (G-28)        
1 28702U 05022A   26087.75331427 -.00000217  00000+0  00000+0 0  9992
2 28702   3.0911  79.9195 0002284 288.0988  62.2531  1.00272100 51169
THAICOM 4               
1 28786U 05028A   26087.85367806 -.00000382  00000+0  00000+0 0  9994
2 28786   0.0437  85.6584 0001983 283.8321 243.5879  1.00272279 51443
ANIK F1R                
1 28868U 05036A   26087.69350352 -.00000091  00000+0  00000+0 0  9991
2 28868   4.1076  77.5637 0003012 304.6315 306.2586  1.00271925 45641
SYRACUSE 3A             
1 28885U 05041B   26087.69646068  .00000115  00000+0  00000+0 0  9994
2 28885   4.4380  76.8209 0003751 289.6502 116.5664  1.00269824 74947
INMARSAT 4-F2           
1 28899U 05044A   26087.55962522 -.00000276  00000+0  00000+0 0  9992
2 28899   4.9910  43.7951 0002935 337.4395 149.6921  1.00271063 74714
METEOSAT-9 (MSG-2)      
1 28912U 05049B   26087.55372006  .00000111  00000+0  00000+0 0  9992
2 28912   9.1814  54.9434 0000189 125.5968 250.3933  1.00272852  6198
EUTELSAT 174A           
1 28924U 05052A   26087.77197419 -.00000007  00000+0  00000+0 0  9991
2 28924   4.0163  77.5024 0006342 290.9437 269.6211  1.00272626 51521
ECHOSTAR 10             
1 28935U 06003A   26087.66526056 -.00000075  00000+0  00000+0 0  9996
2 28935   0.0416  27.2200 0001636 306.1493 341.9936  1.00271294 73657
SPAINSAT                
1 28945U 06007A   26087.56727694 -.00000236  00000+0  00000+0 0  9990
2 28945   0.3552  88.0118 0004499 286.3879 345.5900  1.00272931 73405
EKRAN 2 DEB             
1 29014U 77092K   26087.72835417  .00000107  00000+0  00000+0 0  9997
2 29014   4.3407 275.3702 0020019 347.7515  32.2255  1.00130333 46470
JCSAT-5A                
1 29045U 06010A   26087.85610473 -.00000347  00000+0  00000+0 0  9997
2 29045   0.9015  85.1456 0001509 318.7890 222.5879  1.00271163 72967
ASTRA 1KR               
1 29055U 06012A   26087.81781017  .00000100  00000+0  00000+0 0  9995
2 29055   0.2672  82.0282 0003455 280.4744 137.1139  1.00274011 44894
